[{"OBJECT_NAME":"SAPPHIRE","OBJECT_ID":"2013-009C","EPOCH":"2026-03-09T22:57:28.647648","MEAN_MOTION":14.35209243,"ECCENTRICITY":0.00112275,"INCLINATION":98.4222,"RA_OF_ASC_NODE":250.7769,"ARG_OF_PERICENTER":178.7646,"MEAN_ANOMALY":181.357,"EPHEMERIS_TYPE":0,"CLASSIFICATION_TYPE":"U","NORAD_CAT_ID":39088,"ELEMENT_SET_NO":999,"REV_AT_EPOCH":68234,"BSTAR":9.3997997e-5,"MEAN_MOTION_DOT":2.26e-6,"MEAN_MOTION_DDOT":0},{"OBJECT_NAME":"COSMOS 2251 DEB","OBJECT_ID":"1993-036SX","EPOCH":"2026-03-09T13:09:48.091392","MEAN_MOTION":14.38958473,"ECCENTRICITY":0.0034629,"INCLINATION":74.0572,"RA_OF_ASC_NODE":117.7515,"ARG_OF_PERICENTER":163.4231,"MEAN_ANOMALY":196.8065,"EPHEMERIS_TYPE":0,"CLASSIFICATION_TYPE":"U","NORAD_CAT_ID":34454,"ELEMENT_SET_NO":999,"REV_AT_EPOCH":89316,"BSTAR":0.00020757585,"MEAN_MOTION_DOT":6.18e-6,"MEAN_MOTION_DDOT":0}]
